{
  "norad_id": 67167,
  "name": "STARLINK-36198",
  "history": [
    {
      "epoch": "2026-05-06T15:22:18.920064Z",
      "apogee_km": 484.04092188835966,
      "perigee_km": 482.14585005575464,
      "latitude_deg": 4.556029092732361e-05,
      "longitude_deg": -111.25980985405221,
      "height_km": 482.7621967550715,
      "semi_major_axis_km": 6861.230385972057,
      "eccentricity": 0.0001381,
      "inclination_deg": 42.9994,
      "raan_deg": 343.8172,
      "arg_perigee_deg": 276.5334,
      "mean_anomaly_deg": 83.5361,
      "mean_motion_rev_day": 15.27565209
    },
    {
      "epoch": "2026-05-07T21:11:18.101760Z",
      "apogee_km": 484.02953959422484,
      "perigee_km": 482.02470743733284,
      "latitude_deg": 2.145262302614706e-06,
      "longitude_deg": 153.2512313689302,
      "height_km": 482.50009105634604,
      "semi_major_axis_km": 6861.164123515779,
      "eccentricity": 0.0001461,
      "inclination_deg": 42.9989,
      "raan_deg": 336.7994,
      "arg_perigee_deg": 287.6328,
      "mean_anomaly_deg": 72.4364,
      "mean_motion_rev_day": 15.27587338
    },
    {
      "epoch": "2026-05-08T20:43:37.995744Z",
      "apogee_km": 483.9498191289722,
      "perigee_km": 481.98617087940147,
      "latitude_deg": 2.0849929166666317e-05,
      "longitude_deg": 153.66405026979,
      "height_km": 482.4792814299162,
      "semi_major_axis_km": 6861.104995004186,
      "eccentricity": 0.0001431,
      "inclination_deg": 43.0008,
      "raan_deg": 331.2618,
      "arg_perigee_deg": 285.6901,
      "mean_anomaly_deg": 74.3793,
      "mean_motion_rev_day": 15.27607085
    },
    {
      "epoch": "2026-05-09T20:15:58.954176Z",
      "apogee_km": 483.27013935622745,
      "perigee_km": 482.82004581095316,
      "latitude_deg": 2.7816409335652953e-06,
      "longitude_deg": 154.0712834053973,
      "height_km": 482.921048581075,
      "semi_major_axis_km": 6861.18209258359,
      "eccentricity": 3.28e-05,
      "inclination_deg": 42.9988,
      "raan_deg": 325.7231,
      "arg_perigee_deg": 243.5036,
      "mean_anomaly_deg": 116.5782,
      "mean_motion_rev_day": 15.27581337
    },
    {
      "epoch": "2026-05-09T21:50:08.217312Z",
      "apogee_km": 484.0421839451419,
      "perigee_km": 482.06204476673884,
      "latitude_deg": -6.023352705412665e-05,
      "longitude_deg": 130.09937329068234,
      "height_km": 482.7424578644697,
      "semi_major_axis_km": 6861.18911435594,
      "eccentricity": 0.0001443,
      "inclination_deg": 43.0014,
      "raan_deg": 325.3543,
      "arg_perigee_deg": 275.0159,
      "mean_anomaly_deg": 85.0527,
      "mean_motion_rev_day": 15.27578992
    },
    {
      "epoch": "2026-05-11T19:20:40.638624Z",
      "apogee_km": 483.91712284612186,
      "perigee_km": 482.168894179953,
      "latitude_deg": 2.5705707502604075e-05,
      "longitude_deg": 154.8862863918141,
      "height_km": 482.71695986424385,
      "semi_major_axis_km": 6861.180008513037,
      "eccentricity": 0.0001274,
      "inclination_deg": 43.0016,
      "raan_deg": 314.6452,
      "arg_perigee_deg": 276.7557,
      "mean_anomaly_deg": 83.315,
      "mean_motion_rev_day": 15.27582033
    },
    {
      "epoch": "2026-05-12T20:27:10.599264Z",
      "apogee_km": 483.93045489465294,
      "perigee_km": 482.1081317831413,
      "latitude_deg": -3.1015853600961e-05,
      "longitude_deg": 131.32382815838076,
      "height_km": 482.78094242400994,
      "semi_major_axis_km": 6861.156293338897,
      "eccentricity": 0.0001328,
      "inclination_deg": 43.0008,
      "raan_deg": 308.7388,
      "arg_perigee_deg": 270.9487,
      "mean_anomaly_deg": 89.1212,
      "mean_motion_rev_day": 15.27589953
    },
    {
      "epoch": "2026-05-13T04:17:57.514560Z",
      "apogee_km": 483.8560120558359,
      "perigee_km": 482.21070340405186,
      "latitude_deg": -6.123176594487598e-06,
      "longitude_deg": 11.458335722517555,
      "height_km": 482.716248858447,
      "semi_major_axis_km": 6861.170357729943,
      "eccentricity": 0.0001199,
      "inclination_deg": 43.0007,
      "raan_deg": 306.891,
      "arg_perigee_deg": 276.542,
      "mean_anomaly_deg": 83.5295,
      "mean_motion_rev_day": 15.27585256
    },
    {
      "epoch": "2026-05-14T19:31:52.218912Z",
      "apogee_km": 484.57028294821066,
      "perigee_km": 481.4269222832281,
      "latitude_deg": 5.7859227143589985e-05,
      "longitude_deg": 132.13547451783901,
      "height_km": 482.7782407076707,
      "semi_major_axis_km": 6861.135602615719,
      "eccentricity": 0.00022907,
      "inclination_deg": 43.0031,
      "raan_deg": 297.6572,
      "arg_perigee_deg": 269.9302,
      "mean_anomaly_deg": 90.1288,
      "mean_motion_rev_day": 15.27596863
    },
    {
      "epoch": "2026-05-16T20:10:43.874976Z",
      "apogee_km": 483.9724461203732,
      "perigee_km": 482.1679486274643,
      "latitude_deg": -6.862853314379666e-06,
      "longitude_deg": 108.97718008812863,
      "height_km": 482.8022898799792,
      "semi_major_axis_km": 6861.2071973739185,
      "eccentricity": 0.0001315,
      "inclination_deg": 43.0012,
      "raan_deg": 286.2121,
      "arg_perigee_deg": 272.8384,
      "mean_anomaly_deg": 87.2317,
      "mean_motion_rev_day": 15.27572953
    }
  ]
}